YAOGAN-35 05C           
1 53763U 22109D   26068.97557007  .00010718  00000+0  45958-3 0  9990
2 53763  34.9905 260.7893 0002831  75.4847 284.6181 15.21968910195243
T1DES 1 (DRAGOON 1)     
1 64542U 25135Q   26068.31050305  .00014527  00000+0  60518-3 0  9997
2 64542  97.4578 184.7906 0003878 148.7870 211.3598 15.23819655 39702
